STARLINK-3318           
1 50837U 22001AL  25299.79475356 -.00000225  00000+0  39442-5 0  9997
2 50837  53.2172  50.1987 0001259  88.7726 271.3411 15.08835060210198
STARLINK-3322           
1 50838U 22001AM  25300.33336806  .00176358  00000+0  78992-3 0  9998
2 50838  53.1811 318.2615 0002319  21.8522 345.7422 15.83167486  5940
STARLINK-3320           
1 50839U 22001AN  25299.61348900  .00001038  00000+0  83274-4 0  9997
2 50839  53.2172  61.0100 0001416  90.2405 269.8749 15.08852505210015
STARLINK-3295           
1 50840U 22001AP  25299.74229828  .00000374  00000+0  41562-4 0  9996
2 50840  53.2166  60.4315 0001379  92.4301 267.6849 15.08842434210037
STARLINK-3300           
1 50841U 22001AQ  25299.62085747  .00000972  00000+0  79169-4 0  9992
2 50841  53.2171  60.9778 0001239  91.9655 268.1479 15.08840906210029
STARLINK-3302           
1 50842U 22001AR  25300.06982084 -.00000410  00000+0 -76558-5 0  9993
2 50842  53.2172  58.9622 0001342  84.3133 275.8012 15.08841870210083
STARLINK-3325           
1 50843U 22001AS  25300.02566091  .00000887  00000+0  73789-4 0  9994
2 50843  53.2171  59.1596 0001243  89.4996 270.6138 15.08837354210083
STARLINK-3326           
1 50844U 22001AT  25300.05877895  .00001804  00000+0  13133-3 0  9991
2 50844  53.2210  59.0099 0001587  91.4172 268.7002 15.08858498210096
STARLINK-3230           
1 50845U 22001AU  25300.03670803  .00000385  00000+0  42281-4 0  9990
2 50845  53.2199  59.1105 0001388  90.9115 269.2036 15.08836743210094
STARLINK-3308           
1 50846U 22001AV  25300.06615678  .00000078  00000+0  23019-4 0  9990
2 50846  53.2171  59.0949 0001300  91.8598 268.2543 15.08837628210094
STARLINK-3315           
1 50848U 22001AX  25300.05142396  .00000512  00000+0  50261-4 0  9995
2 50848  53.2185  59.0443 0001245  87.4979 272.6155 15.08841146210090
STARLINK-3311           
1 50849U 22001AY  25300.06246695 -.00000172  00000+0  72757-5 0  9992
2 50849  53.2171  58.9969 0000962  88.3946 271.7157 15.08831873210094
STARLINK-3312           
1 50850U 22001AZ  25299.93366889 -.00000267  00000+0  13423-5 0  9995
2 50850  53.2201  19.5750 0001439  95.3970 264.7186 15.08837219211170
STARLINK-3314           
1 50851U 22001BA  25300.04037682  .00000088  00000+0  23629-4 0  9995
2 50851  53.2183  59.0157 0001334  87.3371 272.7774 15.08831875210094
STARLINK-3366           
1 51104U 22005A   25299.93458719 -.00000058  00000+0  14449-4 0  9992
2 51104  53.2161 169.5693 0001300  92.0917 268.0224 15.08832687208688
STARLINK-3350           
1 51105U 22005B   25299.90882926  .00000661  00000+0  59587-4 0  9992
2 51105  53.2158 169.6887 0001390  85.4057 274.7093 15.08839024208681
