[{"OBJECT_NAME":"STARLINK-3318","OBJECT_ID":"2022-001AL","EPOCH":"2025-10-26T19:04:26.707584","MEAN_MOTION":15.0883506,"ECCENTRICITY":0.00012592,"INCLINATION":53.2172,"RA_OF_ASC_NODE":50.1987,"ARG_OF_PERICENTER":88.7726,"MEAN_ANOMALY":271.3411,"EPHEMERIS_TYPE":0,"CLASSIFICATION_TYPE":"U","NORAD_CAT_ID":50837,"ELEMENT_SET_NO":999,"REV_AT_EPOCH":21019,"BSTAR":3.944237e-6,"MEAN_MOTION_DOT":-2.25e-6,"MEAN_MOTION_DDOT":0},{"OBJECT_NAME":"STARLINK-3322","OBJECT_ID":"2022-001AM","EPOCH":"2025-10-27T08:00:03.000384","MEAN_MOTION":15.83167486,"ECCENTRICITY":0.00023196,"INCLINATION":53.1811,"RA_OF_ASC_NODE":318.2615,"ARG_OF_PERICENTER":21.8522,"MEAN_ANOMALY":345.7422,"EPHEMERIS_TYPE":0,"CLASSIFICATION_TYPE":"U","NORAD_CAT_ID":50838,"ELEMENT_SET_NO":999,"REV_AT_EPOCH":594,"BSTAR":0.00078992018,"MEAN_MOTION_DOT":0.00176358,"MEAN_MOTION_DDOT":0},{"OBJECT_NAME":"STARLINK-3320","OBJECT_ID":"2022-001AN","EPOCH":"2025-10-26T14:43:25.449600","MEAN_MOTION":15.08852505,"ECCENTRICITY":0.00014161,"INCLINATION":53.2172,"RA_OF_ASC_NODE":61.01,"ARG_OF_PERICENTER":90.2405,"MEAN_ANOMALY":269.8749,"EPHEMERIS_TYPE":0,"CLASSIFICATION_TYPE":"U","NORAD_CAT_ID":50839,"ELEMENT_SET_NO":999,"REV_AT_EPOCH":21001,"BSTAR":8.3273617e-5,"MEAN_MOTION_DOT":1.038e-5,"MEAN_MOTION_DDOT":0},{"OBJECT_NAME":"STARLINK-3295","OBJECT_ID":"2022-001AP","EPOCH":"2025-10-26T17:48:54.571392","MEAN_MOTION":15.08842434,"ECCENTRICITY":0.00013799,"INCLINATION":53.2166,"RA_OF_ASC_NODE":60.4315,"ARG_OF_PERICENTER":92.4301,"MEAN_ANOMALY":267.6849,"EPHEMERIS_TYPE":0,"CLASSIFICATION_TYPE":"U","NORAD_CAT_ID":50840,"ELEMENT_SET_NO":999,"REV_AT_EPOCH":21003,"BSTAR":4.1562482e-5,"MEAN_MOTION_DOT":3.74e-6,"MEAN_MOTION_DDOT":0},{"OBJECT_NAME":"STARLINK-3300","OBJECT_ID":"2022-001AQ","EPOCH":"2025-10-26T14:54:02.085408","MEAN_MOTION":15.08840906,"ECCENTRICITY":0.00012397,"INCLINATION":53.2171,"RA_OF_ASC_NODE":60.9778,"ARG_OF_PERICENTER":91.9655,"MEAN_ANOMALY":268.1479,"EPHEMERIS_TYPE":0,"CLASSIFICATION_TYPE":"U","NORAD_CAT_ID":50841,"ELEMENT_SET_NO":999,"REV_AT_EPOCH":21002,"BSTAR":7.9168797e-5,"MEAN_MOTION_DOT":9.72e-6,"MEAN_MOTION_DDOT":0},{"OBJECT_NAME":"STARLINK-3302","OBJECT_ID":"2022-001AR","EPOCH":"2025-10-27T01:40:32.520576","MEAN_MOTION":15.0884187,"ECCENTRICITY":0.00013429,"INCLINATION":53.2172,"RA_OF_ASC_NODE":58.9622,"ARG_OF_PERICENTER":84.3133,"MEAN_ANOMALY":275.8012,"EPHEMERIS_TYPE":0,"CLASSIFICATION_TYPE":"U","NORAD_CAT_ID":50842,"ELEMENT_SET_NO":999,"REV_AT_EPOCH":21008,"BSTAR":-7.655814e-6,"MEAN_MOTION_DOT":-4.1e-6,"MEAN_MOTION_DDOT":0},{"OBJECT_NAME":"STARLINK-3325","OBJECT_ID":"2022-001AS","EPOCH":"2025-10-27T00:36:57.102624","MEAN_MOTION":15.08837354,"ECCENTRICITY":0.00012435,"INCLINATION":53.2171,"RA_OF_ASC_NODE":59.1596,"ARG_OF_PERICENTER":89.4996,"MEAN_ANOMALY":270.6138,"EPHEMERIS_TYPE":0,"CLASSIFICATION_TYPE":"U","NORAD_CAT_ID":50843,"ELEMENT_SET_NO":999,"REV_AT_EPOCH":21008,"BSTAR":7.3788954e-5,"MEAN_MOTION_DOT":8.87e-6,"MEAN_MOTION_DDOT":0},{"OBJECT_NAME":"STARLINK-3326","OBJECT_ID":"2022-001AT","EPOCH":"2025-10-27T01:24:38.501280","MEAN_MOTION":15.08858498,"ECCENTRICITY":0.00015873,"INCLINATION":53.221,"RA_OF_ASC_NODE":59.0099,"ARG_OF_PERICENTER":91.4172,"MEAN_ANOMALY":268.7002,"EPHEMERIS_TYPE":0,"CLASSIFICATION_TYPE":"U","NORAD_CAT_ID":50844,"ELEMENT_SET_NO":999,"REV_AT_EPOCH":21009,"BSTAR":0.00013133361,"MEAN_MOTION_DOT":1.804e-5,"MEAN_MOTION_DDOT":0},{"OBJECT_NAME":"STARLINK-3230","OBJECT_ID":"2022-001AU","EPOCH":"2025-10-27T00:52:51.573792","MEAN_MOTION":15.08836743,"ECCENTRICITY":0.00013881,"INCLINATION":53.2199,"RA_OF_ASC_NODE":59.1105,"ARG_OF_PERICENTER":90.9115,"MEAN_ANOMALY":269.2036,"EPHEMERIS_TYPE":0,"CLASSIFICATION_TYPE":"U","NORAD_CAT_ID":50845,"ELEMENT_SET_NO":999,"REV_AT_EPOCH":21009,"BSTAR":4.2281166e-5,"MEAN_MOTION_DOT":3.85e-6,"MEAN_MOTION_DDOT":0},{"OBJECT_NAME":"STARLINK-3308","OBJECT_ID":"2022-001AV","EPOCH":"2025-10-27T01:35:15.945792","MEAN_MOTION":15.08837628,"ECCENTRICITY":0.00013009,"INCLINATION":53.2171,"RA_OF_ASC_NODE":59.0949,"ARG_OF_PERICENTER":91.8598,"MEAN_ANOMALY":268.2543,"EPHEMERIS_TYPE":0,"CLASSIFICATION_TYPE":"U","NORAD_CAT_ID":50846,"ELEMENT_SET_NO":999,"REV_AT_EPOCH":21009,"BSTAR":2.3019293e-5,"MEAN_MOTION_DOT":7.8e-7,"MEAN_MOTION_DDOT":0},{"OBJECT_NAME":"STARLINK-3315","OBJECT_ID":"2022-001AX","EPOCH":"2025-10-27T01:14:03.030144","MEAN_MOTION":15.08841146,"ECCENTRICITY":0.00012452,"INCLINATION":53.2185,"RA_OF_ASC_NODE":59.0443,"ARG_OF_PERICENTER":87.4979,"MEAN_ANOMALY":272.6155,"EPHEMERIS_TYPE":0,"CLASSIFICATION_TYPE":"U","NORAD_CAT_ID":50848,"ELEMENT_SET_NO":999,"REV_AT_EPOCH":21009,"BSTAR":5.0260501e-5,"MEAN_MOTION_DOT":5.12e-6,"MEAN_MOTION_DDOT":0},{"OBJECT_NAME":"STARLINK-3311","OBJECT_ID":"2022-001AY","EPOCH":"2025-10-27T01:29:57.144480","MEAN_MOTION":15.08831873,"ECCENTRICITY":9.622e-5,"INCLINATION":53.2171,"RA_OF_ASC_NODE":58.9969,"ARG_OF_PERICENTER":88.3946,"MEAN_ANOMALY":271.7157,"EPHEMERIS_TYPE":0,"CLASSIFICATION_TYPE":"U","NORAD_CAT_ID":50849,"ELEMENT_SET_NO":999,"REV_AT_EPOCH":21009,"BSTAR":7.275731e-6,"MEAN_MOTION_DOT":-1.72e-6,"MEAN_MOTION_DDOT":0},{"OBJECT_NAME":"STARLINK-3312","OBJECT_ID":"2022-001AZ","EPOCH":"2025-10-26T22:24:28.992096","MEAN_MOTION":15.08837219,"ECCENTRICITY":0.0001439,"INCLINATION":53.2201,"RA_OF_ASC_NODE":19.575,"ARG_OF_PERICENTER":95.397,"MEAN_ANOMALY":264.7186,"EPHEMERIS_TYPE":0,"CLASSIFICATION_TYPE":"U","NORAD_CAT_ID":50850,"ELEMENT_SET_NO":999,"REV_AT_EPOCH":21117,"BSTAR":1.3423e-6,"MEAN_MOTION_DOT":-2.67e-6,"MEAN_MOTION_DDOT":0},{"OBJECT_NAME":"STARLINK-3314","OBJECT_ID":"2022-001BA","EPOCH":"2025-10-27T00:58:08.557248","MEAN_MOTION":15.08831875,"ECCENTRICITY":0.0001334,"INCLINATION":53.2183,"RA_OF_ASC_NODE":59.0157,"ARG_OF_PERICENTER":87.3371,"MEAN_ANOMALY":272.7774,"EPHEMERIS_TYPE":0,"CLASSIFICATION_TYPE":"U","NORAD_CAT_ID":50851,"ELEMENT_SET_NO":999,"REV_AT_EPOCH":21009,"BSTAR":2.362949e-5,"MEAN_MOTION_DOT":8.8e-7,"MEAN_MOTION_DDOT":0},{"OBJECT_NAME":"STARLINK-3366","OBJECT_ID":"2022-005A","EPOCH":"2025-10-26T22:25:48.333216","MEAN_MOTION":15.08832687,"ECCENTRICITY":0.00013,"INCLINATION":53.2161,"RA_OF_ASC_NODE":169.5693,"ARG_OF_PERICENTER":92.0917,"MEAN_ANOMALY":268.0224,"EPHEMERIS_TYPE":0,"CLASSIFICATION_TYPE":"U","NORAD_CAT_ID":51104,"ELEMENT_SET_NO":999,"REV_AT_EPOCH":20868,"BSTAR":1.4449e-5,"MEAN_MOTION_DOT":-5.8e-7,"MEAN_MOTION_DDOT":0},{"OBJECT_NAME":"STARLINK-3350","OBJECT_ID":"2022-005B","EPOCH":"2025-10-26T21:48:42.848064","MEAN_MOTION":15.08839024,"ECCENTRICITY":0.000139,"INCLINATION":53.2158,"RA_OF_ASC_NODE":169.6887,"ARG_OF_PERICENTER":85.4057,"MEAN_ANOMALY":274.7093,"EPHEMERIS_TYPE":0,"CLASSIFICATION_TYPE":"U","NORAD_CAT_ID":51105,"ELEMENT_SET_NO":999,"REV_AT_EPOCH":20868,"BSTAR":5.9587e-5,"MEAN_MOTION_DOT":6.61e-6,"MEAN_MOTION_DDOT":0}]
